CCSDS_OMM_VERS = 2.0
CREATION_DATE  = 
ORIGINATOR     = 

OBJECT_NAME    = STARLINK-36707
OBJECT_ID      = 2026-025P
CENTER_NAME    = EARTH
REF_FRAME      = TEME
TIME_SYSTEM    = UTC
MEAN_ELEMENT_THEORY = SGP/SGP4

EPOCH          = 2026-02-17T20:00:01.999008
MEAN_MOTION    = 15.97733241
ECCENTRICITY   = .0001444
INCLINATION    = 97.2751
RA_OF_ASC_NODE = 159.3279
ARG_OF_PERICENTER = 75.6361
MEAN_ANOMALY   = 60.3681

EPHEMERIS_TYPE = 0
CLASSIFICATION_TYPE = U
NORAD_CAT_ID   = 67706
ELEMENT_SET_NO = 999
REV_AT_EPOCH   = 249
BSTAR          = -.33692E-2
MEAN_MOTION_DOT = -.1494138E-1
MEAN_MOTION_DDOT = .67226E-3

CCSDS_OMM_VERS = 2.0
CREATION_DATE  = 
ORIGINATOR     = 

OBJECT_NAME    = STARLINK-36645
OBJECT_ID      = 2026-025Q
CENTER_NAME    = EARTH
REF_FRAME      = TEME
TIME_SYSTEM    = UTC
MEAN_ELEMENT_THEORY = SGP/SGP4

EPOCH          = 2026-02-17T20:00:01.999008
MEAN_MOTION    = 15.97237411
ECCENTRICITY   = .0001545
INCLINATION    = 97.2755
RA_OF_ASC_NODE = 159.3230
ARG_OF_PERICENTER = 69.7124
MEAN_ANOMALY   = 55.9303

EPHEMERIS_TYPE = 0
CLASSIFICATION_TYPE = U
NORAD_CAT_ID   = 67707
ELEMENT_SET_NO = 999
REV_AT_EPOCH   = 226
BSTAR          = -.35408E-2
MEAN_MOTION_DOT = -.1527781E-1
MEAN_MOTION_DDOT = .69686E-3

CCSDS_OMM_VERS = 2.0
CREATION_DATE  = 
ORIGINATOR     = 

OBJECT_NAME    = STARLINK-36287
OBJECT_ID      = 2026-025R
CENTER_NAME    = EARTH
REF_FRAME      = TEME
TIME_SYSTEM    = UTC
MEAN_ELEMENT_THEORY = SGP/SGP4

EPOCH          = 2026-02-17T20:00:01.999008
MEAN_MOTION    = 15.97972159
ECCENTRICITY   = .0001508
INCLINATION    = 97.2747
RA_OF_ASC_NODE = 159.3294
ARG_OF_PERICENTER = 71.7740
MEAN_ANOMALY   = 69.1489

EPHEMERIS_TYPE = 0
CLASSIFICATION_TYPE = U
NORAD_CAT_ID   = 67708
ELEMENT_SET_NO = 999
REV_AT_EPOCH   = 281
BSTAR          = -.33077E-2
MEAN_MOTION_DOT = -.1486331E-1
MEAN_MOTION_DDOT = .66749E-3

CCSDS_OMM_VERS = 2.0
CREATION_DATE  = 
ORIGINATOR     = 

OBJECT_NAME    = STARLINK-36698
OBJECT_ID      = 2026-025S
CENTER_NAME    = EARTH
REF_FRAME      = TEME
TIME_SYSTEM    = UTC
MEAN_ELEMENT_THEORY = SGP/SGP4

EPOCH          = 2026-02-17T20:00:01.999008
MEAN_MOTION    = 15.98892183
ECCENTRICITY   = .0001478
INCLINATION    = 97.2745
RA_OF_ASC_NODE = 159.3379
ARG_OF_PERICENTER = 74.4452
MEAN_ANOMALY   = 85.0688

EPHEMERIS_TYPE = 0
CLASSIFICATION_TYPE = U
NORAD_CAT_ID   = 67709
ELEMENT_SET_NO = 999
REV_AT_EPOCH   = 265
BSTAR          = -.30606E-2
MEAN_MOTION_DOT = -.1447657E-1
MEAN_MOTION_DDOT = .64209E-3

CCSDS_OMM_VERS = 2.0
CREATION_DATE  = 
ORIGINATOR     = 

OBJECT_NAME    = STARLINK-36344
OBJECT_ID      = 2026-025T
CENTER_NAME    = EARTH
REF_FRAME      = TEME
TIME_SYSTEM    = UTC
MEAN_ELEMENT_THEORY = SGP/SGP4

EPOCH          = 2026-02-17T20:00:01.999008
MEAN_MOTION    = 15.98329198
ECCENTRICITY   = .0001514
INCLINATION    = 97.2749
RA_OF_ASC_NODE = 159.3329
ARG_OF_PERICENTER = 68.6580
MEAN_ANOMALY   = 79.3578

EPHEMERIS_TYPE = 0
CLASSIFICATION_TYPE = U
NORAD_CAT_ID   = 67710
ELEMENT_SET_NO = 999
REV_AT_EPOCH   = 281
BSTAR          = -.31953E-2
MEAN_MOTION_DOT = -.1464653E-1
MEAN_MOTION_DDOT = .65209E-3

CCSDS_OMM_VERS = 2.0
CREATION_DATE  = 
ORIGINATOR     = 

OBJECT_NAME    = STARLINK-36687
OBJECT_ID      = 2026-025U
CENTER_NAME    = EARTH
REF_FRAME      = TEME
TIME_SYSTEM    = UTC
MEAN_ELEMENT_THEORY = SGP/SGP4

EPOCH          = 2026-02-17T20:00:01.999008
MEAN_MOTION    = 15.98597676
ECCENTRICITY   = .0001533
INCLINATION    = 97.2747
RA_OF_ASC_NODE = 159.3351
ARG_OF_PERICENTER = 70.4660
MEAN_ANOMALY   = 82.9402

EPHEMERIS_TYPE = 0
CLASSIFICATION_TYPE = U
NORAD_CAT_ID   = 67711
ELEMENT_SET_NO = 999
REV_AT_EPOCH   = 281
BSTAR          = -.31783E-2
MEAN_MOTION_DOT = -.1478575E-1
MEAN_MOTION_DDOT = .66559E-3

CCSDS_OMM_VERS = 2.0
CREATION_DATE  = 
ORIGINATOR     = 

OBJECT_NAME    = STARLINK-36705
OBJECT_ID      = 2026-025V
CENTER_NAME    = EARTH
REF_FRAME      = TEME
TIME_SYSTEM    = UTC
MEAN_ELEMENT_THEORY = SGP/SGP4

EPOCH          = 2026-02-17T20:00:01.999008
MEAN_MOTION    = 15.99208682
ECCENTRICITY   = .0001541
INCLINATION    = 97.2742
RA_OF_ASC_NODE = 159.3400
ARG_OF_PERICENTER = 72.3779
MEAN_ANOMALY   = 93.4833

EPHEMERIS_TYPE = 0
CLASSIFICATION_TYPE = U
NORAD_CAT_ID   = 67712
ELEMENT_SET_NO = 999
REV_AT_EPOCH   = 271
BSTAR          = -.29812E-2
MEAN_MOTION_DOT = -.1435369E-1
MEAN_MOTION_DDOT = .63424E-3

CCSDS_OMM_VERS = 2.0
CREATION_DATE  = 
ORIGINATOR     = 

OBJECT_NAME    = STARLINK-36708
OBJECT_ID      = 2026-025W
CENTER_NAME    = EARTH
REF_FRAME      = TEME
TIME_SYSTEM    = UTC
MEAN_ELEMENT_THEORY = SGP/SGP4

EPOCH          = 2026-02-17T20:00:01.999008
MEAN_MOTION    = 15.99957338
ECCENTRICITY   = .0001459
INCLINATION    = 97.2746
RA_OF_ASC_NODE = 159.3467
ARG_OF_PERICENTER = 80.8749
MEAN_ANOMALY   = 100.1590

EPHEMERIS_TYPE = 0
CLASSIFICATION_TYPE = U
NORAD_CAT_ID   = 67713
ELEMENT_SET_NO = 999
REV_AT_EPOCH   = 271
BSTAR          = -.28005E-2
MEAN_MOTION_DOT = -.1406609E-1
MEAN_MOTION_DDOT = .61601E-3

CCSDS_OMM_VERS = 2.0
CREATION_DATE  = 
ORIGINATOR     = 

OBJECT_NAME    = STARLINK-36702
OBJECT_ID      = 2026-025X
CENTER_NAME    = EARTH
REF_FRAME      = TEME
TIME_SYSTEM    = UTC
MEAN_ELEMENT_THEORY = SGP/SGP4

EPOCH          = 2026-02-17T20:00:01.999008
MEAN_MOTION    = 15.99730856
ECCENTRICITY   = .0001519
INCLINATION    = 97.2744
RA_OF_ASC_NODE = 159.3446
ARG_OF_PERICENTER = 74.0512
MEAN_ANOMALY   = 102.3939

EPHEMERIS_TYPE = 0
CLASSIFICATION_TYPE = U
NORAD_CAT_ID   = 67714
ELEMENT_SET_NO = 999
REV_AT_EPOCH   = 244
BSTAR          = -.28477E-2
MEAN_MOTION_DOT = -.141212E-1
MEAN_MOTION_DDOT = .61892E-3

CCSDS_OMM_VERS = 2.0
CREATION_DATE  = 
ORIGINATOR     = 

OBJECT_NAME    = STARLINK-36718
OBJECT_ID      = 2026-025Y
CENTER_NAME    = EARTH
REF_FRAME      = TEME
TIME_SYSTEM    = UTC
MEAN_ELEMENT_THEORY = SGP/SGP4

EPOCH          = 2026-02-17T20:00:01.999008
MEAN_MOTION    = 16.00501293
ECCENTRICITY   = .0001275
INCLINATION    = 97.2747
RA_OF_ASC_NODE = 159.3517
ARG_OF_PERICENTER = 82.7105
MEAN_ANOMALY   = 109.1427

EPHEMERIS_TYPE = 0
CLASSIFICATION_TYPE = U
NORAD_CAT_ID   = 67715
ELEMENT_SET_NO = 999
REV_AT_EPOCH   = 265
BSTAR          = -.26875E-2
MEAN_MOTION_DOT = -.1392247E-1
MEAN_MOTION_DDOT = .60811E-3

CCSDS_OMM_VERS = 2.0
CREATION_DATE  = 
ORIGINATOR     = 

OBJECT_NAME    = STARLINK-36715
OBJECT_ID      = 2026-025Z
CENTER_NAME    = EARTH
REF_FRAME      = TEME
TIME_SYSTEM    = UTC
MEAN_ELEMENT_THEORY = SGP/SGP4

EPOCH          = 2026-02-17T20:00:01.999008
MEAN_MOTION    = 16.00243062
ECCENTRICITY   = .0001415
INCLINATION    = 97.2744
RA_OF_ASC_NODE = 159.3494
ARG_OF_PERICENTER = 80.5933
MEAN_ANOMALY   = 106.1693

EPHEMERIS_TYPE = 0
CLASSIFICATION_TYPE = U
NORAD_CAT_ID   = 67716
ELEMENT_SET_NO = 999
REV_AT_EPOCH   = 271
BSTAR          = -.27257E-2
MEAN_MOTION_DOT = -.1391501E-1
MEAN_MOTION_DDOT = .60574E-3

CCSDS_OMM_VERS = 2.0
CREATION_DATE  = 
ORIGINATOR     = 

OBJECT_NAME    = STARLINK-36385
OBJECT_ID      = 2026-025AA
CENTER_NAME    = EARTH
REF_FRAME      = TEME
TIME_SYSTEM    = UTC
MEAN_ELEMENT_THEORY = SGP/SGP4

EPOCH          = 2026-02-17T20:00:01.999008
MEAN_MOTION    = 15.99468517
ECCENTRICITY   = .0001434
INCLINATION    = 97.2746
RA_OF_ASC_NODE = 159.3427
ARG_OF_PERICENTER = 67.7378
MEAN_ANOMALY   = 103.2221

EPHEMERIS_TYPE = 0
CLASSIFICATION_TYPE = U
NORAD_CAT_ID   = 67717
ELEMENT_SET_NO = 999
REV_AT_EPOCH   = 271
BSTAR          = -.29162E-2
MEAN_MOTION_DOT = -.1424777E-1
MEAN_MOTION_DDOT = .6274E-3

