STARLINK-36707          
1 67706U 26025P   26048.83335647 -.01494138  67226-3 -33692-2 0  9993
2 67706  97.2751 159.3279 0001444  75.6361  60.3681 15.97733241  2497
STARLINK-36645          
1 67707U 26025Q   26048.83335647 -.01527781  69686-3 -35408-2 0  9994
2 67707  97.2755 159.3230 0001545  69.7124  55.9303 15.97237411  2266
STARLINK-36287          
1 67708U 26025R   26048.83335647 -.01486331  66749-3 -33077-2 0  9997
2 67708  97.2747 159.3294 0001508  71.7740  69.1489 15.97972159  2812
STARLINK-36698          
1 67709U 26025S   26048.83335647 -.01447657  64209-3 -30606-2 0  9990
2 67709  97.2745 159.3379 0001478  74.4452  85.0688 15.98892183  2650
STARLINK-36344          
1 67710U 26025T   26048.83335647 -.01464653  65209-3 -31953-2 0  9994
2 67710  97.2749 159.3329 0001514  68.6580  79.3578 15.98329198  2812
STARLINK-36687          
1 67711U 26025U   26048.83335647 -.01478575  66559-3 -31783-2 0  9993
2 67711  97.2747 159.3351 0001533  70.4660  82.9402 15.98597676  2811
STARLINK-36705          
1 67712U 26025V   26048.83335647 -.01435369  63424-3 -29812-2 0  9996
2 67712  97.2742 159.3400 0001541  72.3779  93.4833 15.99208682  2714
STARLINK-36708          
1 67713U 26025W   26048.83335647 -.01406609  61601-3 -28005-2 0  9990
2 67713  97.2746 159.3467 0001459  80.8749 100.1590 15.99957338  2716
STARLINK-36702          
1 67714U 26025X   26048.83335647 -.01412120  61892-3 -28477-2 0  9991
2 67714  97.2744 159.3446 0001519  74.0512 102.3939 15.99730856  2447
STARLINK-36718          
1 67715U 26025Y   26048.83335647 -.01392247  60811-3 -26875-2 0  9999
2 67715  97.2747 159.3517 0001275  82.7105 109.1427 16.00501293  2657
STARLINK-36715          
1 67716U 26025Z   26048.83335647 -.01391501  60574-3 -27257-2 0  9993
2 67716  97.2744 159.3494 0001415  80.5933 106.1693 16.00243062  2716
STARLINK-36385          
1 67717U 26025AA  26048.83335647 -.01424777  62740-3 -29162-2 0  9990
2 67717  97.2746 159.3427 0001434  67.7378 103.2221 15.99468517  2712
